{"type": "FeatureCollection", "features": [ {"type": "Feature", "properties": {"norad_id": 66420, "name": "HULIANWANG DIGUI 13J", "group": "last-30-days", "lat": 49.79965623953407, "lon": -1.8090155024496515, "alt_km": 815.9100621395128, "timestamp": "2025-12-09T16:56:35.357708+00:00", "meta": {"OBJECT_NAME": "HULIANWANG DIGUI 13J", "OBJECT_ID": "2025-258J", "EPOCH": "2025-12-08T20:17:06.442944", "MEAN_MOTION": 14.20810839, "ECCENTRICITY": 0.00037732, "INCLINATION": 50.0024, "RA_OF_ASC_NODE": 278.346, "ARG_OF_PERICENTER": 347.1433, "MEAN_ANOMALY": 12.9382, "EPHEMERIS_TYPE": 0, "CLASSIFICATION_TYPE": "U", "NORAD_CAT_ID": 66420, "ELEMENT_SET_NO": 999, "REV_AT_EPOCH": 409, "BSTAR": 0.00037258505, "MEAN_MOTION_DOT": 6.52e-06, "MEAN_MOTION_DDOT": 0}, "tle": {"line1": "1 66420U 25258J   25342.84521346  .00000652  00000+0  37259-3 0  9990", "line2": "2 66420  50.0024 278.3460 0003773 347.1433  12.9382 14.20810839  4090"}}, "geometry": {"type": "Point", "coordinates": [-1.8090155024496515, 49.79965623953407]}}, {"type": "Feature", "properties": {"norad_id": 66421, "name": "CZ-12 R/B", "group": "last-30-days", "lat": 1.3761721909836506, "lon": 89.95547578579952, "alt_km": 728.2321125503231, "timestamp": "2025-12-09T16:56:35.357721+00:00", "meta": {"OBJECT_NAME": "CZ-12 R/B", "OBJECT_ID": "2025-258K", "EPOCH": "2025-12-09T07:48:03.220992", "MEAN_MOTION": 14.42322551, "ECCENTRICITY": 0.00645343, "INCLINATION": 49.9957, "RA_OF_ASC_NODE": 272.765, "ARG_OF_PERICENTER": 237.1319, "MEAN_ANOMALY": 122.338, "EPHEMERIS_TYPE": 0, "CLASSIFICATION_TYPE": "U", "NORAD_CAT_ID": 66421, "ELEMENT_SET_NO": 999, "REV_AT_EPOCH": 423, "BSTAR": 0.00015260249, "MEAN_MOTION_DOT": 3.5e-06, "MEAN_MOTION_DDOT": 0}, "tle": {"line1": "1 66421U 25258K   25343.32503728  .00000350  00000+0  15260-3 0  9992", "line2": "2 66421  49.9957 272.7650 0064534 237.1319 122.3380 14.42322551  4238"}}, "geometry": {"type": "Point", "coordinates": [89.95547578579952, 1.3761721909836506]}}, {"type": "Feature", "properties": {"norad_id": 66422, "name": "STARLINK-35617", "group": "last-30-days", "lat": 11.418659034461319, "lon": 78.10989124413545, "alt_km": 442.21803962980357, "timestamp": "2025-12-09T16:56:35.357732+00:00", "meta": {"OBJECT_NAME": "STARLINK-35617", "OBJECT_ID": "2025-259A", "EPOCH": "2025-12-09T12:12:10.263168", "MEAN_MOTION": 15.40777762, "ECCENTRICITY": 0.000104, "INCLINATION": 43.0035, "RA_OF_ASC_NODE": 66.7321, "ARG_OF_PERICENTER": 134.0359, "MEAN_ANOMALY": 226.0583, "EPHEMERIS_TYPE": 0, "CLASSIFICATION_TYPE": "U", "NORAD_CAT_ID": 66422, "ELEMENT_SET_NO": 999, "REV_AT_EPOCH": 566, "BSTAR": 0.0020546, "MEAN_MOTION_DOT": 0.00086728, "MEAN_MOTION_DDOT": 0}, "tle": {"line1": "1 66422U 25259A   25343.50845212  .00086728  00000+0  20546-2 0  9996", "line2": "2 66422  43.0035  66.7321 0001040 134.0359 226.0583 15.40777762  5661"}}, "geometry": {"type": "Point", "coordinates": [78.10989124413545, 11.418659034461319]}}, {"type": "Feature", "properties": {"norad_id": 66423, "name": "STARLINK-35618", "group": "last-30-days", "lat": 19.498298601615552, "lon": 87.89341135593381, "alt_km": 441.2232309119354, "timestamp": "2025-12-09T16:56:35.357742+00:00", "meta": {"OBJECT_NAME": "STARLINK-35618", "OBJECT_ID": "2025-259B", "EPOCH": "2025-12-09T12:08:56.703840", "MEAN_MOTION": 15.40756263, "ECCENTRICITY": 0.0001693, "INCLINATION": 43.0051, "RA_OF_ASC_NODE": 66.7166, "ARG_OF_PERICENTER": 272.423, "MEAN_ANOMALY": 87.6433, "EPHEMERIS_TYPE": 0, "CLASSIFICATION_TYPE": "U", "NORAD_CAT_ID": 66423, "ELEMENT_SET_NO": 999, "REV_AT_EPOCH": 566, "BSTAR": 0.0014726, "MEAN_MOTION_DOT": 0.00061825, "MEAN_MOTION_DDOT": 0}, "tle": {"line1": "1 66423U 25259B   25343.50621185  .00061825  00000+0  14726-2 0  9992", "line2": "2 66423  43.0051  66.7166 0001693 272.4230  87.6433 15.40756263  5664"}}, "geometry": {"type": "Point", "coordinates": [87.89341135593381, 19.498298601615552]}}, {"type": "Feature", "properties": {"norad_id": 66424, "name": "STARLINK-35588", "group": "last-30-days", "lat": 26.968965846705572, "lon": 98.62665971917222, "alt_km": 440.3035953517492, "timestamp": "2025-12-09T16:56:35.357752+00:00", "meta": {"OBJECT_NAME": "STARLINK-35588", "OBJECT_ID": "2025-259C", "EPOCH": "2025-12-09T00:00:02.000160", "MEAN_MOTION": 15.40656922, "ECCENTRICITY": 0.0001644, "INCLINATION": 43.0009, "RA_OF_ASC_NODE": 69.5999, "ARG_OF_PERICENTER": 277.1195, "MEAN_ANOMALY": 164.4996, "EPHEMERIS_TYPE": 0, "CLASSIFICATION_TYPE": "U", "NORAD_CAT_ID": 66424, "ELEMENT_SET_NO": 999, "REV_AT_EPOCH": 567, "BSTAR": 0.00081937, "MEAN_MOTION_DOT": 0.00034027, "MEAN_MOTION_DDOT": 0}, "tle": {"line1": "1 66424U 25259C   25343.00002315  .00034027  00000+0  81937-3 0  9999", "line2": "2 66424  43.0009  69.5999 0001644 277.1195 164.4996 15.40656922  5671"}}, "geometry": {"type": "Point", "coordinates": [98.62665971917222, 26.968965846705572]}}, {"type": "Feature", "properties": {"norad_id": 66425, "name": "STARLINK-35555", "group": "last-30-days", "lat": 33.5615532771711, "lon": 110.89079128077906, "alt_km": 439.3636310048514, "timestamp": "2025-12-09T16:56:35.357763+00:00", "meta": {"OBJECT_NAME": "STARLINK-35555", "OBJECT_ID": "2025-259D", "EPOCH": "2025-12-09T00:00:02.000160", "MEAN_MOTION": 15.40762168, "ECCENTRICITY": 0.0001334, "INCLINATION": 43.0009, "RA_OF_ASC_NODE": 69.5681, "ARG_OF_PERICENTER": 276.2527, "MEAN_ANOMALY": 177.7303, "EPHEMERIS_TYPE": 0, "CLASSIFICATION_TYPE": "U", "NORAD_CAT_ID": 66425, "ELEMENT_SET_NO": 999, "REV_AT_EPOCH": 567, "BSTAR": -0.0012463, "MEAN_MOTION_DOT": -0.00052117, "MEAN_MOTION_DDOT": 0}, "tle": {"line1": "1 66425U 25259D   25343.00002315 -.00052117  00000+0 -12463-2 0  9999", "line2": "2 66425  43.0009  69.5681 0001334 276.2527 177.7303 15.40762168  5674"}}, "geometry": {"type": "Point", "coordinates": [110.89079128077906, 33.5615532771711]}}, {"type": "Feature", "properties": {"norad_id": 66426, "name": "STARLINK-35589", "group": "last-30-days", "lat": 38.73923477986293, "lon": 124.8947542128937, "alt_km": 438.69889776531545, "timestamp": "2025-12-09T16:56:35.357773+00:00", "meta": {"OBJECT_NAME": "STARLINK-35589", "OBJECT_ID": "2025-259E", "EPOCH": "2025-12-09T12:00:02.000160", "MEAN_MOTION": 15.40647839, "ECCENTRICITY": 0.0001274, "INCLINATION": 43.0007, "RA_OF_ASC_NODE": 66.6611, "ARG_OF_PERICENTER": 279.8227, "MEAN_ANOMALY": 83.2378, "EPHEMERIS_TYPE": 0, "CLASSIFICATION_TYPE": "U", "NORAD_CAT_ID": 66426, "ELEMENT_SET_NO": 999, "REV_AT_EPOCH": 575, "BSTAR": 0.00092548, "MEAN_MOTION_DOT": 0.00038484, "MEAN_MOTION_DDOT": 0}, "tle": {"line1": "1 66426U 25259E   25343.50002315  .00038484  00000+0  92548-3 0  9997", "line2": "2 66426  43.0007  66.6611 0001274 279.8227  83.2378 15.40647839  5752"}}, "geometry": {"type": "Point", "coordinates": [124.8947542128937, 38.73923477986293]}}, {"type": "Feature", "properties": {"norad_id": 66427, "name": "STARLINK-35611", "group": "last-30-days", "lat": 42.019450892056746, "lon": 140.6565008301522, "alt_km": 438.3535693516478, "timestamp": "2025-12-09T16:56:35.357784+00:00", "meta": {"OBJECT_NAME": "STARLINK-35611", "OBJECT_ID": "2025-259F", "EPOCH": "2025-12-09T12:00:02.000160", "MEAN_MOTION": 15.40644248, "ECCENTRICITY": 0.0001377, "INCLINATION": 43.0007, "RA_OF_ASC_NODE": 66.6293, "ARG_OF_PERICENTER": 280.3051, "MEAN_ANOMALY": 95.1935, "EPHEMERIS_TYPE": 0, "CLASSIFICATION_TYPE": "U", "NORAD_CAT_ID": 66427, "ELEMENT_SET_NO": 999, "REV_AT_EPOCH": 575, "BSTAR": 0.00090606, "MEAN_MOTION_DOT": 0.00037661, "MEAN_MOTION_DDOT": 0}, "tle": {"line1": "1 66427U 25259F   25343.50002315  .00037661  00000+0  90606-3 0  9997", "line2": "2 66427  43.0007  66.6293 0001377 280.3051  95.1935 15.40644248  5757"}}, "geometry": {"type": "Point", "coordinates": [140.6565008301522, 42.019450892056746]}}, {"type": "Feature", "properties": {"norad_id": 66428, "name": "STARLINK-35610", "group": "last-30-days", "lat": 42.96182871437311, "lon": 157.4846861603079, "alt_km": 438.2844606449371, "timestamp": "2025-12-09T16:56:35.357794+00:00", "meta": {"OBJECT_NAME": "STARLINK-35610", "OBJECT_ID": "2025-259G", "EPOCH": "2025-12-09T12:00:02.000160", "MEAN_MOTION": 15.40656972, "ECCENTRICITY": 0.0001434, "INCLINATION": 43.0008, "RA_OF_ASC_NODE": 66.599, "ARG_OF_PERICENTER": 271.0468, "MEAN_ANOMALY": 116.8771, "EPHEMERIS_TYPE": 0, "CLASSIFICATION_TYPE": "U", "NORAD_CAT_ID": 66428, "ELEMENT_SET_NO": 999, "REV_AT_EPOCH": 575, "BSTAR": 0.00087873, "MEAN_MOTION_DOT": 0.00036526, "MEAN_MOTION_DDOT": 0}, "tle": {"line1": "1 66428U 25259G   25343.50002315  .00036526  00000+0  87873-3 0  9999", "line2": "2 66428  43.0008  66.5990 0001434 271.0468 116.8771 15.40656972  5751"}}, "geometry": {"type": "Point", "coordinates": [157.4846861603079, 42.96182871437311]}}, {"type": "Feature", "properties": {"norad_id": 66429, "name": "STARLINK-35533", "group": "last-30-days", "lat": 41.41851508287215, "lon": 174.17489240246712, "alt_km": 438.43471245501587, "timestamp": "2025-12-09T16:56:35.357806+00:00", "meta": {"OBJECT_NAME": "STARLINK-35533", "OBJECT_ID": "2025-259H", "EPOCH": "2025-12-09T12:00:02.000160", "MEAN_MOTION": 15.40658407, "ECCENTRICITY": 0.0001313, "INCLINATION": 43.0008, "RA_OF_ASC_NODE": 66.5675, "ARG_OF_PERICENTER": 280.8657, "MEAN_ANOMALY": 119.5051, "EPHEMERIS_TYPE": 0, "CLASSIFICATION_TYPE": "U", "NORAD_CAT_ID": 66429, "ELEMENT_SET_NO": 999, "REV_AT_EPOCH": 575, "BSTAR": 0.0008455, "MEAN_MOTION_DOT": 0.00035129, "MEAN_MOTION_DDOT": 0}, "tle": {"line1": "1 66429U 25259H   25343.50002315  .00035129  00000+0  84550-3 0  9997", "line2": "2 66429  43.0008  66.5675 0001313 280.8657 119.5051 15.40658407  5752"}}, "geometry": {"type": "Point", "coordinates": [174.17489240246712, 41.41851508287215]}}]}